STARLINK-2135
1 17408C 21005BM  21326.12956051  .00004767  00000-0  31937-3 0  3268
2 17408  53.0543 233.1538 0002008  65.5982  77.2684 15.06394561    10
